city,state,zip,county,location_id
Taunton,Massachusetts,02718,US,1
TAUNTON,MA,02780,US,2
RAYNHAM,MA,02767-1973,US,3
Westford,Massachusetts,NA,US,4
CHELMSFORD,MA,01824-2712,US,5
LOWELL,MA,01854,US,6
CHELMSFORD,MA,1824,US,7
Wakefield,Massachusetts,01880,US,8
NORTH READING,MA,01864-3103,US,9
MELROSE,MA,02176,US,10
Northbridge,Massachusetts,NA,US,11
MILFORD,MA,01757,US,12
UPTON,MA,01568-1309,US,13
Somerville,Massachusetts,02138,US,14
EVERETT,MA,02149-3749,US,15
MEDFORD,MA,2155,US,16
Milton,Massachusetts,02186,US,17
BRIGHTON,MA,02135,US,18
QUINCY,MA,02169-4787,US,19
BOSTON,MA,02130,US,20
Ludlow,Massachusetts,NA,US,21
SPRINGFIELD,MA,01199,US,22
LUDLOW,MA,01056-1700,US,23
SPRINGFIELD,MA,1104,US,24
Plymouth,Massachusetts,02360,US,25
PLYMOUTH,MA,02360-1342,US,26
PLYMOUTH,MA,02360,US,27
Rockland,Massachusetts,NA,US,28
HINGHAM,MA,02043-2243,US,29
BROCKTON,MA,02302,US,30
BROCKTON,MA,02301,US,31
HANOVER,MA,2339,US,32
Amherst,Massachusetts,NA,US,33
PELHAM,MA,01002-9766,US,34
PALMER,MA,01069,US,35
Brookline,Massachusetts,02215,US,36
SOMERVILLE,MA,02144-2705,US,37
CAMBRIDGE,MA,02138,US,38
Hopedale,Massachusetts,01747,US,39
HOPKINTON,MA,01748-2311,US,40
WESTFORD,MA,01886-2765,US,41
Worcester,Massachusetts,01545,US,42
WORCESTER,MA,01655,US,43
WEST BOYLSTON,MA,01583-2370,US,44
Boston,Massachusetts,02108,US,45
WINTHROP,MA,02152-2913,US,46
BOSTON,MA,02118,US,47
Wellfleet,Massachusetts,NA,US,48
NANTUCKET,MA,02554,US,49
WELLFLEET,MA,02667-7402,US,50
Beverly,Massachusetts,01915,US,51
BEVERLY,MA,01915,US,52
ESSEX,MA,01929-1300,US,53
PEABODY,MA,1960,US,54
Milford,Massachusetts,01757,US,55
MILFORD,MA,01757-3003,US,56
Wenham,Massachusetts,NA,US,57
ESSEX,MA,01929-1027,US,58
Carver,Massachusetts,NA,US,59
CARVER,MA,02330-1046,US,60
Dedham,Massachusetts,02026,US,61
BROOKLINE,MA,02446-3202,US,62
SOMERVILLE,MA,02145-2407,US,63
Woburn,Massachusetts,01801,US,64
WINCHESTER,MA,01890,US,65
READING,MA,01867-3618,US,66
North Reading,Massachusetts,NA,US,67
LAWRENCE,MA,01842,US,68
NORTH READING,MA,01864-2270,US,69
WILMINGTON,MA,1887,US,70
Rowley,Massachusetts,01969,US,71
NEWBURY,MA,01951-1721,US,72
NEWBURYPORT,MA,01950,US,73
Lawrence,Massachusetts,01840,US,74
LAWRENCE,MA,01842-1321,US,75
Fall River,Massachusetts,02720,US,76
BERKLEY,MA,02779-1924,US,77
FALL RIVER,MA,02721,US,78
Shrewsbury,Massachusetts,NA,US,79
CLINTON,MA,01510,US,80
NORTHBOROUGH,MA,01532-1914,US,81
WORCESTER,MA,1605,US,82
Athol,Massachusetts,01331,US,83
ATHOL,MA,01331,US,84
ATHOL,MA,01331-3535,US,85
GREENFIELD,MA,1301,US,86
Provincetown,Massachusetts,02657,US,87
PROVINCETOWN,MA,02657-1352,US,88
Franklin,Massachusetts,02038,US,89
MILLIS,MA,02054-1612,US,90
West Springfield,Massachusetts,01089,US,91
HOLYOKE,MA,01041-6260,US,92
HOLYOKE,MA,01040,US,93
MEDFORD,MA,02155-4530,US,94
BOSTON,MA,02111-1924,US,95
BOSTON,MA,02114,US,96
BOSTON,MA,02115,US,97
East Longmeadow,Massachusetts,NA,US,98
EAST LONGMEADOW,MA,01028-2360,US,99
Marlborough,Massachusetts,01752,US,100
SUDBURY,MA,01776-3022,US,101
FRAMINGHAM,MA,01701,US,102
Weymouth,Massachusetts,02188,US,103
BOSTON,MA,02111,US,104
WEYMOUTH,MA,02190-1567,US,105
BRAINTREE,MA,2184,US,106
New Bedford,Massachusetts,02740,US,107
ACUSHNET,MA,02743-2750,US,108
HYANNIS,MA,02601,US,109
BOSTON,MA,02215,US,110
QUINCY,MA,02169-6706,US,111
Watertown,Massachusetts,02472,US,112
WOBURN,MA,01801-6365,US,113
CHICOPEE,MA,01013-2798,US,114
CHICOPEE,MA,1020,US,115
Framingham,Massachusetts,01701,US,116
WAYLAND,MA,01778-1833,US,117
Westport,Massachusetts,NA,US,118
WESTPORT,MA,02790-4398,US,119
FALL RIVER,MA,02720,US,120
NORTH DARTMOUTH,MA,2747,US,121
Somerset,Massachusetts,02725,US,122
FALL RIVER,MA,02720-5543,US,123
HAMILTON,MA,01936,US,124
Cheshire,Massachusetts,01225,US,125
PITTSFIELD,MA,01201,US,126
ADAMS,MA,01220-1300,US,127
CHICOPEE,MA,01020-3958,US,128
Attleboro,Massachusetts,02703,US,129
MANSFIELD,MA,02048-2165,US,130
ATTLEBORO,MA,02703,US,131
MALDEN,MA,02148-4118,US,132
Revere,Massachusetts,02151,US,133
LYNN,MA,01901-1201,US,134
Brockton,Massachusetts,02301,US,135
ROCKLAND,MA,02370-1067,US,136
Belmont,Massachusetts,02138,US,137
MEDFORD,MA,02155-3084,US,138
Clinton,Massachusetts,01510,US,139
AYER,MA,01432,US,140
HARVARD,MA,01451-1649,US,141
Winchendon,Massachusetts,01475,US,142
GARDNER,MA,01440,US,143
WINCHENDON,MA,01475-1820,US,144
Marblehead,Massachusetts,01945,US,145
MARBLEHEAD,MA,01945-2100,US,146
Littleton,Massachusetts,NA,US,147
LITTLETON,MA,01460-1275,US,148
CHELSEA,MA,02150-2326,US,149
Malden,Massachusetts,02148,US,150
SAUGUS,MA,01906-1158,US,151
BEVERLY,MA,01915-1944,US,152
Hull,Massachusetts,02045,US,153
EAST BOSTON,MA,02128-1142,US,154
Springfield,Massachusetts,01013,US,155
CHICOPEE,MA,01013-1679,US,156
SPRINGFIELD,MA,01104,US,157
Saugus,Massachusetts,01906,US,158
SALEM,MA,01970,US,159
PEABODY,MA,01960-2913,US,160
HOLLISTON,MA,01746-1041,US,161
CHICOPEE,MA,01013-2672,US,162
Dracut,Massachusetts,NA,US,163
METHUEN,MA,01844-5883,US,164
METHUEN,MA,01844,US,165
LOWELL,MA,1850,US,166
ACUSHNET,MA,02743-2772,US,167
Dudley,Massachusetts,NA,US,168
SOUTHBRIDGE,MA,01550,US,169
OXFORD,MA,01540-1728,US,170
CEDARVILLE,MA,02360-6903,US,171
Everett,Massachusetts,02148,US,172
SAUGUS,MA,01906-3201,US,173
Cambridge,Massachusetts,02138,US,174
MELROSE,MA,02176-3879,US,175
Holliston,Massachusetts,NA,US,176
HOLLISTON,MA,01746-2105,US,177
WALTHAM,MA,2453,US,178
BOSTON,MA,02124,US,179
BOSTON,MA,02115-5724,US,180
EAST BOSTON,MA,2128,US,181
North Andover,Massachusetts,NA,US,182
BOXFORD,MA,01921-2321,US,183
NORWOOD,MA,02062,US,184
MILLIS,MA,02054-1600,US,185
NORTH ATTLEBORO,MA,2760,US,186
Sandwich,Massachusetts,02563,US,187
E SANDWICH,MA,02537-1470,US,188
WORCESTER,MA,01608,US,189
SHREWSBURY,MA,01545-2904,US,190
W CONCORD,MA,01742,US,191
Danvers,Massachusetts,01923,US,192
TOPSFIELD,MA,01983-1409,US,193
Westfield,Massachusetts,01085,US,194
WESTFIELD,MA,01085-4224,US,195
Harwich,Massachusetts,NA,US,196
EAST HARWICH,MA,02645-1316,US,197
Yarmouth,Massachusetts,NA,US,198
FALMOUTH,MA,02540,US,199
EAST DENNIS,MA,02641,US,200
Falmouth,Massachusetts,02540,US,201
NORTH FALMOUTH,MA,02556-2820,US,202
TEATICKET,MA,2536,US,203
BROOKLINE,MA,02446-4811,US,204
NEWTON,MA,02462,US,205
WORCESTER,MA,01605,US,206
WORCESTER,MA,01605-1918,US,207
Chicopee,Massachusetts,01013,US,208
SOUTH HADLEY,MA,01075-1155,US,209
Uxbridge,Massachusetts,NA,US,210
NORTHBRIDGE,MA,01534-1415,US,211
REVERE,MA,02151-3050,US,212
CHELSEA,MA,2150,US,213
Chatham,Massachusetts,02633,US,214
ORLEANS,MA,02653-1566,US,215
HARWICH,MA,2645,US,216
BOSTON,MA,02120-2847,US,217
North Attleborough,Massachusetts,NA,US,218
FOXBORO,MA,02035-2041,US,219
MARLBOROUGH,MA,01752,US,220
MAYNARD,MA,01754-2651,US,221
Berkley,Massachusetts,NA,US,222
MIDDLEBORO,MA,02346-1458,US,223
Ware,Massachusetts,01082,US,224
WARE,MA,01082-1082,US,225
Brewster,Massachusetts,02631,US,226
BREWER,MA,02631-1311,US,227
Pittsfield,Massachusetts,01201,US,228
LANESBOROUGH,MA,01237-9524,US,229
NORTHAMPTON,MA,1060,US,230
SPRINGFIELD,MA,01104-3513,US,231
STONEHAM,MA,02180-3643,US,232
Tewksbury,Massachusetts,NA,US,233
LAWRENCE,MA,01840-1244,US,234
ORLEANS,MA,02653-2429,US,235
METHUEN,MA,01844-3400,US,236
CHICOPEE,MA,01013-3140,US,237
NEW BEDFORD,MA,2746,US,238
LOWELL,MA,01852-1270,US,239
LUDLOW,MA,01056-1228,US,240
Auburn,Massachusetts,NA,US,241
WORCESTER,MA,01608-1216,US,242
EVERETT,MA,02149-3603,US,243
NORTH ANDOVER,MA,01845-6152,US,244
SHREWSBURY,MA,01545-6405,US,245
Billerica,Massachusetts,NA,US,246
TEWKSBURY,MA,01876-4712,US,247
BURLINGTON,MA,01803,US,248
Northampton,Massachusetts,01053,US,249
NORTHAMPTON,MA,01060,US,250
WILLIAMSBURG,MA,01096-9427,US,251
Winthrop,Massachusetts,02128,US,252
SWAMPSCOTT,MA,01907-1831,US,253
EASTHAM,MA,02642,US,254
WILBRAHAM,MA,01095-2647,US,255
Haverhill,MA,01830,US,256
HAVERHILL,MA,01832-5531,US,257
REVERE,MA,02151-4309,US,258
SWAMPSCOTT,MA,1907,US,259
Lynn,MA,01904,US,260
SOMERVILLE,MA,02143-4297,US,261
BOSTON,MA,2116,US,262
WORCESTER,MA,01604-4616,US,263
WORCESTER,MA,1610,US,264
Arlington,Massachusetts,02474,US,265
STONEHAM,MA,02180-3662,US,266
HOLYOKE,MA,01040-2275,US,267
NORFOLK,MA,02056-1680,US,268
Framingham,MA,01702,US,269
Bridgewater,Massachusetts,02324,US,270
WHITMAN,MA,02382-2436,US,271
REVERE,MA,02151-3200,US,272
SOMERSET,MA,02726-1218,US,273
ROCKLAND,MA,02370-1280,US,274
SPRINGFIELD,MA,01119-2650,US,275
Millis,Massachusetts,NA,US,276
MEDFIELD,MA,02052-1555,US,277
NORTH DARTMOUTH,MA,02747-1242,US,278
New Bedford,MA,02740,US,279
WAKEFIELD,MA,01880-5207,US,280
Lunenburg,Massachusetts,01462,US,281
SHIRLEY,MA,01464-2561,US,282
Norwell,Massachusetts,NA,US,283
NORWELL,MA,02061-1799,US,284
Newton,Massachusetts,02458,US,285
LEXINGTON,MA,02421-7527,US,286
Salem,Massachusetts,01907,US,287
Agawam,Massachusetts,01001,US,288
SPRINGFIELD,MA,01104-2330,US,289
BROOKLINE,MA,02445-1922,US,290
WEST BOYLSTON,MA,01583-1268,US,291
Rutland,Massachusetts,01543,US,292
RUTLAND,MA,01543-1527,US,293
Chelsea,Massachusetts,02149,US,294
PEABODY,MA,01960-4375,US,295
Dunstable,Massachusetts,NA,US,296
WESTFORD,MA,01886-3149,US,297
WILMINGTON,MA,01887-2745,US,298
Great Barrington,Massachusetts,01230,US,299
LEE,MA,01238-9612,US,300
GREAT BARRINGTON,MA,01230,US,301
Southwick,Massachusetts,NA,US,302
WESTFIELD,MA,01085,US,303
WESTFIELD,MA,01085-1889,US,304
Sharon,Massachusetts,02067,US,305
SHARON,MA,02067-1172,US,306
WINTHROP,MA,02152-1037,US,307
MILTON,MA,02186,US,308
SOUTH WEYMOUTH,MA,02190,US,309
MILTON,MA,02186-3878,US,310
DORCHESTER,MA,2124,US,311
WEST SPRINGFIELD,MA,01089-3557,US,312
Lynn,Massachusetts,01901,US,313
DANVERS,MA,01923-4065,US,314
Northborough,Massachusetts,01532,US,315
MARLBORO,MA,01752-3586,US,316
Webster,Massachusetts,01570,US,317
DOUGLAS,MA,01516-2160,US,318
Lowell,Massachusetts,01850,US,319
METHUEN,MA,01844-5817,US,320
SAUGUS,MA,01906-1094,US,321
ATHOL,MA,01331-2225,US,322
Kingston,Massachusetts,02364,US,323
DUXBURY,MA,02332-5315,US,324
Mansfield,Massachusetts,NA,US,325
EASTON,MA,02334,US,326
BROOKLINE,MA,02445-7170,US,327
Spencer,Massachusetts,01562,US,328
PAXTON,MA,01612-1120,US,329
SHARON,MA,02067-2068,US,330
ABINGTON,MA,02351-1707,US,331
CHELSEA,MA,02150-1812,US,332
New Salem,Massachusetts,NA,US,333
PETERSHAM,MA,01366-9503,US,334
WHITMAN,MA,02382-1057,US,335
SAUGUS,MA,01906-1980,US,336
Bourne,Massachusetts,02532,US,337
SAGAMORE,MA,02561,US,338
SHREWSBURY,MA,01545-3869,US,339
CHELSEA,MA,02150-4068,US,340
Wellesley,Massachusetts,02457,US,341
WESTON,MA,03493,US,342
Hingham,Massachusetts,02043,US,343
COHASSET,MA,02025-1391,US,344
LAKEVILLE,MA,02347-1608,US,345
WENHAM,MA,01984-1813,US,346
Groveland,Massachusetts,NA,US,347
GEORGETOWN,MA,01833-2010,US,348
WILBRAHAM,MA,01095-1159,US,349
Walpole,Massachusetts,02081,US,350
DEDHAM,MA,02026-4427,US,351
SOUTH ATTLEBORO,MA,02703-5917,US,352
STOW,MA,01775-1190,US,353
Stoughton,Massachusetts,NA,US,354
HOLBROOK,MA,02343-1510,US,355
WALPOLE,MA,02081-1844,US,356
MALDEN,MA,02148-5103,US,357
Westborough,Massachusetts,01581,US,358
MARLBORO,MA,01752-3295,US,359
BOXFORD,MA,01921-1017,US,360
ORLEANS,MA,02653-2316,US,361
Pepperell,Massachusetts,01463,US,362
GROTON,MA,01450-1379,US,363
Whitman,Massachusetts,NA,US,364
Sterling,Massachusetts,NA,US,365
LANCASTER,MA,01523-2056,US,366
Templeton,Massachusetts,NA,US,367
BALDWINVILLE,MA,01436-1351,US,368
Acton,Massachusetts,NA,US,369
CARLISLE,MA,01741-1840,US,370
SHERBORN,MA,01770-1546,US,371
West Boylston,Massachusetts,NA,US,372
WEST BOYLSTON,MA,01583-1418,US,373
Medford,Massachusetts,02145,US,374
WAKEFIELD,MA,01880-1022,US,375
WESTFIELD,MA,01085-2912,US,376
MEDFORD,MA,02155-3819,US,377
Rehoboth,Massachusetts,NA,US,378
TAUNTON,MA,02780-7410,US,379
BEVERLY,MA,01915-1706,US,380
South Hadley,Massachusetts,NA,US,381
SOUTH HADLEY,MA,01075-3218,US,382
Norton,Massachusetts,NA,US,383
Randolph,Massachusetts,02368,US,384
QUINCY,MA,02169-1252,US,385
HOLBROOK,MA,02343-1111,US,386
BROCKTON,MA,2301,US,387
WATERTOWN,MA,02472,US,388
Norfolk,Massachusetts,NA,US,389
WALPOLE,MA,02032-1196,US,390
Quincy,Massachusetts,02169,US,391
QUINCY,MA,02169-4607,US,392
HINGHAM,MA,02043-1762,US,393
METHUEN,MA,01844-4597,US,394
NEEDHAM,MA,02494,US,395
NEEDHAM,MA,02492-2520,US,396
NORWELL,MA,02061-1741,US,397
Sutton,Massachusetts,NA,US,398
SUTTON,MA,01590-1908,US,399
EVERETT,MA,02149-5066,US,400
Reading,Massachusetts,01801,US,401
MIDDLETON,MA,01949-2446,US,402
TEWKSBURY,MA,01876-1699,US,403
MARLBOROUGH,MA,01752-3545,US,404
BOSTON,MA,02118-4001,US,405
BOSTON,MA,02120,US,406
Ashland,Massachusetts,NA,US,407
FRAMINGHAM,MA,01701-4608,US,408
MILTON,MA,02186-3926,US,409
Norwood,Massachusetts,02062,US,410
MILTON,MA,02186-3877,US,411
Haverhill,Massachusetts,01830,US,412
HAVERHILL,MA,01830-2659,US,413
DORCHESTER,MA,02122-2921,US,414
WAKEFIELD,MA,01880-2930,US,415
Tyngsborough,Massachusetts,NA,US,416
DRACUT,MA,01826-5228,US,417
NATICK,MA,01760-4310,US,418
Hatfield,Massachusetts,01038,US,419
HADLEY,MA,01035-9570,US,420
BELCHERTOWN,MA,01007-9408,US,421
BRAINTREE,MA,02184-5370,US,422
WEST BOYLSTON,MA,01583-1217,US,423
BRIGHTON,MA,02135-7132,US,424
NORFOLK,MA,02056-1322,US,425
DEDHAM,MA,02026-6815,US,426
DEDHAM,MA,02026-6239,US,427
Wareham,Massachusetts,NA,US,428
WAREHAM,MA,02571-1138,US,429
ROCKLAND,MA,02370-1075,US,430
NORTON,MA,02766-2100,US,431
W SPRINGFIELD,MA,01089-2742,US,432
MEDFORD,MA,02155-3850,US,433
MELROSE,MA,02176-3231,US,434
Duxbury,Massachusetts,02332,US,435
MARSHFIELD,MA,02050-2034,US,436
Grafton,Massachusetts,NA,US,437
WESTBOROUGH,MA,01581-1768,US,438
BELMONT,MA,02478-1064,US,439
STOW,MA,01775-1189,US,440
MILTON,MA,02186-2318,US,441
CHELSEA,MA,02150-2363,US,442
Boston,MA,02210,US,443
AUBURN,MA,01501-5708,US,444
REHOBOTH,MA,02763,US,445
FALL RIVER,MA,02720-5923,US,446
LYNN,MA,01904-2915,US,447
WORCESTER,MA,01602-4339,US,448
PLYMOUTH,MA,02360-4451,US,449
BUZZARDS BAY,MA,2532,US,450
MALDEN,MA,02148-2329,US,451
Wilmington,Massachusetts,01887,US,452
NORTH READING,MA,01864-2158,US,453
Easton,Massachusetts,NA,US,454
BROCKTON,MA,02302-2803,US,455
PITTSFILED,MA,01201,US,456
SPRINGFIELD,MA,01103-1979,US,457
Amesbury,Massachusetts,01913,US,458
AMESBURY,MA,01913-2823,US,459
Braintree,Massachusetts,02184,US,460
QUINCY,MA,02169-8130,US,461
Waltham,Massachusetts,02451,US,462
WRENTHAM,MA,02093-1527,US,463
Concord,Massachusetts,NA,US,464
BILLERICA,MA,01821-2811,US,465
Holyoke,Massachusetts,01040,US,466
HOLYOKE,MA,01040-5117,US,467
DRACUT,MA,01826-2754,US,468
Holden,Massachusetts,NA,US,469
LEOMINSTER,MA,01453,US,470
STERLING,MA,01564-2114,US,471
Boxborough,Massachusetts,NA,US,472
Barnstable,Massachusetts,02601,US,473
EAST DENNIS,MA,02641-0356,US,474
LYNNFIELD,MA,01940-2617,US,475
CONCORD,MA,01742-2190,US,476
HOLDEN,MA,01520-3800,US,477
Worcester,MA,01609,US,478
ARLINGTON,MA,02476-6533,US,479
Deerfield,Massachusetts,01342,US,480
MONTAGUE,MA,01351-8925,US,481
GREENFIELD,MA,01301,US,482
Rochester,Massachusetts,NA,US,483
WEST WAREHAM,MA,02576-1208,US,484
EAST BOSTON,MA,02128-2116,US,485
Scituate,Massachusetts,02066,US,486
COHASSET,MA,02025-1416,US,487
WAYLAND,MA,01778-3101,US,488
NEEDHAM,MA,02492-2411,US,489
CAMBRIDGE,MA,02139-1047,US,490
Dartmouth,Massachusetts,NA,US,491
FAIRHAVEN,MA,02719-4013,US,492
FAIRHAVEN,MA,2719,US,493
JAMAICA PLAIN,MA,02130-2156,US,494
SAUGUS,MA,01906-3143,US,495
GRANBY,MA,01033-9611,US,496
Leicester,Massachusetts,NA,US,497
WORCESTER,MA,01602-3300,US,498
PLAINVILLE,MA,02762-2271,US,499
MALDEN,MA,02148-3919,US,500
ABINGTON,MA,02351-1921,US,501
DARTMOUTH,MA,02747-1257,US,502
Westhampton,Massachusetts,NA,US,503
FLORENCE,MA,01062-1323,US,504
SALISBURY,MA,01952-1828,US,505
Boylston,Massachusetts,NA,US,506
CLINTON,MA,01510-2560,US,507
CHELSEA,MA,02150-2339,US,508
CLINTON,MA,01510-1608,US,509
DRACUT,MA,01826-1929,US,510
LYNN,MA,01904-1419,US,511
Hudson,Massachusetts,01749,US,512
ACTON,MA,01720-4720,US,513
ANDOVER,MA,01810-3834,US,514
Burlington,Massachusetts,01730,US,515
WILMINGTON,MA,01887-2341,US,516
BOSTON,MA,2128,US,517
EAST BRIDGEWATER,MA,02333-2054,US,518
BRIGHTON,MA,02135-2905,US,519
BELMONT,MA,02478-5023,US,520
Longmeadow,Massachusetts,01106,US,521
SPRINGFIELD,MA,01105-1864,US,522
SOMERVILLE,MA,02145-1102,US,523
LITTLETON,MA,01460-1279,US,524
Natick,Massachusetts,NA,US,525
NATICK,MA,01760-7700,US,526
PLAINVILLE,MA,02762-2257,US,527
NEWTON,MA,02462-1628,US,528
ACTON,MA,01720-4772,US,529
Peabody,Massachusetts,01940,US,530
Washington,Massachusetts,NA,US,531
DALTON,MA,01226-1202,US,532
LYNN,MA,01901-1311,US,533
WEYMOUTH,MA,02190-1872,US,534
YARMOUTH PORT,MA,02675-2517,US,535
HYANNIS,MA,2601,US,536
WEST SPRINGFIELD,MA,01089-1540,US,537
SOUTH DEERFIELD,MA,01373-9752,US,538
Chelmsford,Massachusetts,NA,US,539
LOWELL,MA,01852-1900,US,540
SOMERVILLE,MA,02144-1703,US,541
TAUNTON,MA,02780-3251,US,542
WESTBORO,MA,01581-1494,US,543
TOPSFIELD,MA,01983-1200,US,544
Belchertown,Massachusetts,01007,US,545
Seekonk,Massachusetts,NA,US,546
OXFORD,MA,01540-2199,US,547
Winchester,Massachusetts,01890,US,548
NORTH READING,MA,01864-2346,US,549
DOVER,MA,02030-1805,US,550
Sturbridge,Massachusetts,01507,US,551
CHARLTEN,MA,01507-7251,US,552
MARBLEHEAD,MA,01945-2704,US,553
CAMBRIDGE,MA,02139-3188,US,554
MIDDLETON,MA,01949-2474,US,555
SOMERSET,MA,02726-4202,US,556
SWAMPSCOTT,MA,01907-1300,US,557
FALL RIVER,MA,02724-3008,US,558
FALL RIVER,MA,2721,US,559
Freetown,Massachusetts,NA,US,560
LAKEVILLE,MA,02347-1674,US,561
CHELSEA,MA,02150-2380,US,562
Ashburnham,Massachusetts,NA,US,563
ASHBURNHAM,MA,01430-1242,US,564
NORFOLK,MA,02056-1161,US,565
Gloucester,Massachusetts,01930,US,566
GLOUCESTER,MA,01930-4141,US,567
WAKEFIELD,MA,01880-5013,US,568
Mashpee,Massachusetts,NA,US,569
MASHPEE,MA,2649,US,570
LUDLOW,MA,01056-2711,US,571
SAUGUS,MA,01906-1981,US,572
Orange,Massachusetts,01364,US,573
ORANGE,MA,01364-1440,US,574
WEST ROXBURY,MA,02132-2535,US,575
SALEM,MA,01970-1783,US,576
HOLDEN,MA,01520-1017,US,577
Nantucket,Massachusetts,02554,US,578
NANTUCKET,MA,02554-2799,US,579
Pembroke,Massachusetts,NA,US,580
NORWELL,MA,02061-1737,US,581
PEPPERELL,MA,01463-1504,US,582
SAUGUS,MA,01906-4181,US,583
HAMPDEN,MA,01036-9535,US,584
SPRINGFIELD,MA,1118,US,585
BARNSTABLE,MA,02630-1102,US,586
West Newbury,Massachusetts,NA,US,587
AMESBURY,MA,01913-3536,US,588
REVERE,MA,02151-4543,US,589
SOUTHAMPTON,MA,01073-9274,US,590
SANDWICH,MA,02563-2302,US,591
Greenfield,Massachusetts,01301,US,592
GREENFIELD,MA,01301-2973,US,593
LANESBOROUGH,MA,01237-9726,US,594
PLYMOUTH,MA,02360-3887,US,595
LYNN,MA,01902-3116,US,596
Dover,Massachusetts,02030,US,597
NEWTON UPPER FALLS,MA,02464-1351,US,598
WARE,MA,01082-1659,US,599
STONEHAM,MA,02180-3649,US,600
CANTON,MA,02021-1940,US,601
FRANKLIN,MA,02038-4005,US,602
Methuen,Massachusetts,01841,US,603
METHUEN,MA,01844-5821,US,604
BOURNE,MA,02532-3890,US,605
WESTFORD,MA,01886-3530,US,606
Warren,Massachusetts,01083,US,607
NORTH BROOKFIELD,MA,01535-1400,US,608
ANDOVER,MA,01810-4501,US,609
WAYLAND,MA,01778-3128,US,610
Foxborough,Massachusetts,02035,US,611
SHARON,MA,02067-1748,US,612
WORCESTER,MA,01602-2529,US,613
SALISBURY,MA,01952-1814,US,614
EASTHAM,MA,02642-0458,US,615
DUXBURY,MA,02332-4738,US,616
HULL,MA,02045-2148,US,617
WILBRAHAM,MA,01095-1055,US,618
WINCHESTER,MA,01890-1496,US,619
NORTH DARTMOUTH,MA,02747-1257,US,620
MALDEN,MA,02148-6701,US,621
Townsend,Massachusetts,01469,US,622
PEPPERELL,MA,01463-1561,US,623
NATICK,MA,01760-3889,US,624
MAYNARD,MA,01754-2514,US,625
BOYLSTON,MA,01505-1523,US,626
Lexington,Massachusetts,02420,US,627
BURLINGTON,MA,01803-5154,US,628
RANDOLPH,MA,02368-4835,US,629
MERRIMAC,MA,01860-2005,US,630
PEABODY,MA,01960-4909,US,631
Hadley,Massachusetts,NA,US,632
AMHERST,MA,01002-2385,US,633
Southborough,Massachusetts,NA,US,634
NORTH DARTMOUTH,MA,02747-3733,US,635
CANTON,MA,02021-2514,US,636
ROSLINDALE,MA,02131-1916,US,637
SHREWSBURY,MA,01545-5265,US,638
LYNNFIELD,MA,01940-2682,US,639
Middleborough,Massachusetts,NA,US,640
PLYMPTON,MA,02367-1718,US,641
MALDEN,MA,02148-3920,US,642
Mattapoisett,Massachusetts,NA,US,643
MATTAPOISETT,MA,02739-2626,US,644
WORCESTER,MA,01655-0002,US,645
GROVELAND,MA,01834-1008,US,646
Paxton,Massachusetts,NA,US,647
PEABODY,MA,01960-2907,US,648
MILTON,MA,02186-3881,US,649
CANTON,MA,02021-4006,US,650
SPRINGFIELD,MA,01104-2377,US,651
BERLIN,MA,01503-1225,US,652
HINGHAM,MA,02043-3824,US,653
NEWTON,MA,02458-2036,US,654
NORTHBOROUGH,MA,01532-1624,US,655
LAWRENCE,MA,01843-2837,US,656
Topsfield,Massachusetts,01983,US,657
WEST BROOKFIELD,MA,01585-2812,US,658
W BROOKFIELD,MA,01585-1044,US,659
MASHPEE,MA,02649-6310,US,660
SAUGUS,MA,01906-1605,US,661
LYNN,MA,01901-1529,US,662
CHELSEA,MA,02150-3679,US,663
GLOUCESTER,MA,01930-5726,US,664
DORCHESTER CENTER,MA,02124-5628,US,665
AMHERST,MA,01002-2353,US,666
CHELSEA,MA,02150-2830,US,667
NORTH ANDOVER,MA,01845-5820,US,668
REVERE,MA,02151-2234,US,669
SOUTH HADLEY,MA,01075-2041,US,670
Shirley,Massachusetts,01464,US,671
LUDLOW,MA,01056-1900,US,672
MARBLEHEAD,MA,01945-1737,US,673
AMHERST,MA,01002-3379,US,674
WINCHESTER,MA,01890-2940,US,675
Richmond,Massachusetts,NA,US,676
RICHMOND,MA,01254-0428,US,677
Gardner,Massachusetts,01440,US,678
GARDNER,MA,01440-3933,US,679
PEABODY,MA,01960-2227,US,680
WILMINGTON,MA,01887-3088,US,681
LOWELL,MA,01854-2109,US,682
STONEHAM,MA,02180-3305,US,683
ARLINGTON,MA,02476-4738,US,684
AMESBURY,MA,01913-2440,US,685
MARBLEHEAD,MA,01945-3314,US,686
Brookfield,Massachusetts,01506,US,687
NANTUCKET,MA,02554-6065,US,688
HAVERHILL,MA,01830-6700,US,689
DANVERS,MA,01923-2577,US,690
MARSHFIELD,MA,02050-2705,US,691
BOSTON,MA,02130-3446,US,692
MALDEN,MA,02148-6603,US,693
DRACUT,MA,01826-3277,US,694
CHICOPEE,MA,01020-1969,US,695
ABINGTON,MA,02351-2442,US,696
PEABODY,MA,01960-1438,US,697
NORTH READING,MA,01864-2286,US,698
FOXBORO,MA,02035-2075,US,699
READING,MA,01867-2973,US,700
North Adams,Massachusetts,01247,US,701
NORTH ADAMS,MA,01247-2584,US,702
N ADAMS,MA,01247-4522,US,703
MALDEN,MA,02148-5915,US,704
BELMONT,MA,02478-3603,US,705
SHREWSBURY,MA,01545-5639,US,706
HAVERHILL,MA,01832-1166,US,707
LEVERETT,MA,01054-9770,US,708
HULL,MA,02045-3106,US,709
LYNN,MA,01902-1799,US,710
SOMERVILLE,MA,02143-2937,US,711
Stow,Massachusetts,NA,US,712
ACTON,MA,01720-3418,US,713
Bedford,Massachusetts,01730,US,714
BURLINGTON,MA,01803-3768,US,715
MEDWAY,MA,02053-1515,US,716
WINCHESTER,MA,01890-1446,US,717
Georgetown,Massachusetts,NA,US,718
NEWBURGPORT,MA,01950,US,719
LYNN,MA,01902-3315,US,720
TEWKSBURY,MA,01876-2112,US,721
PLYMOUTH,MA,02360-2237,US,722
CHELMSFORD,MA,01824-3096,US,723
PEPPERELL,MA,01463-1621,US,724
WESTFORD,MA,01886-3198,US,725
Boxford,Massachusetts,01921,US,726
ROWLEY,MA,01969-1754,US,727
REVERE,MA,02151-3675,US,728
EAST LONGMEADOW,MA,01028-1878,US,729
SALEM,MA,01970-2100,US,730
BROOKLINE,MA,02446-4965,US,731
Lynnfield,Massachusetts,01940,US,732
WEST BOYLSTON,MA,01583-1670,US,733
PLAINVILLE,MA,02762-1301,US,734
WOBURN,MA,01801-2943,US,735
Andover,Massachusetts,01810,US,736
NORTH ANDOVER,MA,01845-2410,US,737
ORLEANS,MA,02653-2422,US,738
HULL,MA,02045-3069,US,739
HOLYOKE,MA,01040-6603,US,740
READING,MA,01867-3972,US,741
CAMBRIDGE,MA,02138-3616,US,742
HINGHAM,MA,02043-4362,US,743
WORCESTER,MA,01609-2510,US,744
BOSTON,MA,02111-1415,US,745
Cummington,Massachusetts,NA,US,746
WORTHINGTON,MA,01098,US,747
Northfield,Massachusetts,01360,US,748
NORTHFIELD,MA,01360-9668,US,749
STERLING,MA,01564-2146,US,750
AMHERST,MA,01002-2788,US,751
Fitchburg,Massachusetts,01420,US,752
TOWNSEND,MA,01469-1300,US,753
WILBRAHAM,MA,01095-1658,US,754
NATICK,MA,01760-3719,US,755
Williamstown,Massachusetts,01267,US,756
WILLIAMSTOWN,MA,01267-2641,US,757
Medway,Massachusetts,NA,US,758
MILLIS,MA,02054-1730,US,759
Hopkinton,Massachusetts,01748,US,760
SOUTHBOROUGH,MA,01772-2115,US,761
MELROSE,MA,02176-3859,US,762
Hinsdale,Massachusetts,NA,US,763
FALL RIVER,MA,02720-5246,US,764
SOMERSET,MA,2726,US,765
MALDEN,MA,02148-5509,US,766
Millbury,Massachusetts,NA,US,767
SHREWSBURY,MA,01545-1562,US,768
DANVERS,MA,01923-3625,US,769
Adams,Massachusetts,01220,US,770
NORTH ADAMS,MA,01247-2446,US,771
Canton,Massachusetts,NA,US,772
BRAINTREE,MA,02184-5747,US,773
FALL RIVER,MA,02720-2130,US,774
SOMERSET,MA,02726-2840,US,775
MEDFORD,MA,02155-3838,US,776
HUDSON,MA,01749-1720,US,777
Melrose,Massachusetts,02176,US,778
LYNN,MA,01904-1424,US,779
LYNN,MA,01901-1115,US,780
BROOKLINE,MA,02445-7573,US,781
WINCHESTER,MA,01890-2718,US,782
STONEHAM,MA,02180-2445,US,783
QUINCY,MA,02169-4175,US,784
HADLEY,MA,01035-3534,US,785
LUDLOW,MA,01056-1934,US,786
Raynham,Massachusetts,NA,US,787
WEST BRIDGEWATER,MA,02379,US,788
SOUTH WEYMOUTH,MA,02190-2432,US,789
GARDNER,MA,01440-1377,US,790
WINTHROP,MA,02152-2902,US,791
Worcester,MA,01605,US,792
CHELSEA,MA,02150-2247,US,793
SOUTHAMPTON,MA,01073-0431,US,794
Leominster,Massachusetts,01420,US,795
LUNENBURG,MA,01462-1219,US,796
WINTHROP,MA,02152-1637,US,797
CHELSEA,MA,02150-2336,US,798
Marshfield,Massachusetts,02050,US,799
MARSHFIELD,MA,02050-2147,US,800
BEVERLY,MA,01915-1790,US,801
SOMERVILLE,MA,02143,US,802
EVERETT,MA,02149-0009,US,803
BEVERLY,MA,01915-6126,US,804
CHICOPEE,MA,01020-1568,US,805
PLYMOUTH,MA,02360-3964,US,806
Weston,Massachusetts,NA,US,807
WALTHAM,MA,02451-8706,US,808
Stoneham,Massachusetts,02180,US,809
READING,MA,01867-3271,US,810
BROOKLINE,MA,02445-5349,US,811
ATHOL,MA,01331-3534,US,812
WEST BRIDGEWATER,MA,02379-1755,US,813
DANVERS,MA,01923-3620,US,814
Lincoln,Massachusetts,NA,US,815
BEDFORD,MA,01731-2613,US,816
ACTON,MA,01720-5760,US,817
CARVER,MA,02330-1128,US,818
SOMERSET,MA,02726-1210,US,819
ROSLINDALE,MA,02131-2757,US,820
Swansea,Massachusetts,NA,US,821
BRIGHTON,MA,02135-3356,US,822
HALIFAX,MA,02338-1431,US,823
MAYNARD,MA,01754-1360,US,824
RAYNHAM,MA,02767-5306,US,825
HALIFAX,MA,02338-1342,US,826
Sandisfield,Massachusetts,NA,US,827
MONTEREY,MA,01245,US,828
W SPRINGFIELD,MA,01089-2578,US,829
WINCHESTER,MA,01890-1992,US,830
Carlisle,Massachusetts,NA,US,831
BILLERICA,MA,01821-5938,US,832
EAST BOSTON,MA,02128-1134,US,833
HAVERHILL,MA,01832-4739,US,834
LUNENBURG,MA,01462-2013,US,835
BELCHERTOWN,MA,01007-9401,US,836
PEPPERELL,MA,01463-1560,US,837
NORTH ADAMS,MA,01247-2504,US,838
REHOBOTH,MA,02769-2601,US,839
TAUNTON,MA,2780,US,840
SOMERVILLE,MA,02143-1495,US,841
DRACUT,MA,01826-4067,US,842
PLYMOUTH,MA,02360-8718,US,843
Eastham,Massachusetts,NA,US,844
EASTHAM,MA,02642-2682,US,845
ACTON,MA,01720-4482,US,846
HAVERHILL,MA,01830-6476,US,847
Medfield,Massachusetts,02052,US,848
DOVER,MA,02030-2411,US,849
Wilbraham,Massachusetts,01095,US,850
PALMER,MA,01069-1156,US,851
HOLDEN,MA,01520-1838,US,852
S DARTMOUTH,MA,02748-2516,US,853
FALMOUTH,MA,02540-3920,US,854
Tisbury,Massachusetts,NA,US,855
TEATICKET,MA,02536-5678,US,856
Alford,Massachusetts,NA,US,857
WEST STOCKBRIDGE,MA,01266-9236,US,858
ATTLEBORO,MA,02703-3335,US,859
ATHOL,MA,01331-2661,US,860
MANSFIELD,MA,02048-1245,US,861
WALPOLE,MA,02081-2553,US,862
SAUGUS,MA,01906-2107,US,863
BRIDGEWATER,MA,02324-1455,US,864
Sudbury,Massachusetts,NA,US,865
ACTON,MA,01720-5649,US,866
FISKDALE,MA,01518-1293,US,867
DUXBURY,MA,02332-5028,US,868
REVERE,MA,02151-1234,US,869
SOUTH HADLEY,MA,01075-3062,US,870
CARVER,MA,02330-1349,US,871
REVERE,MA,02151-3034,US,872
BRIGHTON,MA,02135-3514,US,873
HAVERHILL,MA,01835-7442,US,874
North Brookfield,Massachusetts,01535,US,875
LYNN,MA,01902-1934,US,876
FRAMINGHAM,MA,01701-5229,US,877
REVERE,MA,02151-5305,US,878
BUZZARDS BAY,MA,02532-3245,US,879
Newburyport,Massachusetts,01950,US,880
SALISBURY,MA,01952-2446,US,881
LUNENBURG,MA,01462-2175,US,882
DARTMOUTH,MA,02747-1242,US,883
SAUGUS,MA,01906-1175,US,884
LEXINGTON,MA,02420-4543,US,885
SOUTH DARTMOUTH,MA,02748-3524,US,886
NEW BEDFORD,MA,2740,US,887
MIDDLETON,MA,01949-9998,US,888
STOUGHTON,MA,02072-3745,US,889
W WAREHAM,MA,02576-1208,US,890
WESTON,MA,02493-1161,US,891
Sunderland,Massachusetts,NA,US,892
EASTHAMPTON,MA,01027-4100,US,893
SALEM,MA,01970-2723,US,894
BEVERLY,MA,01915-2757,US,895
MATTAPOISETT,MA,02739-1650,US,896
STONEHAM,MA,02180-3644,US,897
EAST LONGMEADOW,MA,01028-2402,US,898
WEST BOYLSTON,MA,01583-2373,US,899
BOSTON,MA,02109-4002,US,900
SHREWSBURY,MA,01545-2938,US,901
WORCESTER,MA,01608-1230,US,902
PEABODY,MA,01960-7935,US,903
HANOVER,MA,02339-2235,US,904
WARE,MA,01082-1625,US,905
SHREWSBURY,MA,01545-1834,US,906
CHICOPEE,MA,01020-1238,US,907
WINTHROP,MA,02152-1058,US,908
HAMILTON,MA,01936-0296,US,909
PROVINCETOWN,MA,02657-1618,US,910
MARBLEHEAD,MA,01945-1576,US,911
SALEM,MA,01970-2141,US,912
DANVERS,MA,01923-2952,US,913
SALEM,MA,01970-1728,US,914
PRINCETON,MA,01541-1808,US,915
WEST BRIDGEWATER,MA,02379-1770,US,916
SALISBURY,MA,01952-2400,US,917
MALDEN,MA,02148-5167,US,918
BOSTON,MA,02116-3177,US,919
Ipswich,Massachusetts,01938,US,920
FAIRHAVEN,MA,02719-5208,US,921
MIDDLEBOROUGH,MA,02346-2123,US,922
SALISBURY,MA,01952-1435,US,923
WEST SPRINGFIELD,MA,01089-3365,US,924
ASHBURNHAM,MA,01430-1210,US,925
Hamilton,Massachusetts,NA,US,926
LYNN,MA,01901-1629,US,927
BEVERLY,MA,01915-1164,US,928
REVERE,MA,02151-1018,US,929
WAYLAND,MA,01778-5036,US,930
Westminster,Massachusetts,NA,US,931
Maynard,Massachusetts,01754,US,932
CONCORD,MA,01742-2859,US,933
HOLLISTON,MA,01746-1690,US,934
STOUGHTON,MA,02072-3374,US,935
LAKEVILLE,MA,02347-1606,US,936
ASHLAND,MA,01721-1464,US,937
EAST BOSTON,MA,02128-1920,US,938
Harvard,Massachusetts,NA,US,939
AYER,MA,01432-1124,US,940
JAMAICA PLAIN,MA,02130-4323,US,941
WALTHAM,MA,02453-5205,US,942
BELMONT,MA,02478-1041,US,943
WALTHAM,MA,2451,US,944
CONCORD,MA,01742-2129,US,945
FALL RIVER,MA,02720-5254,US,946
ATTLEBORO,MA,02703-3511,US,947
LEXINGTON,MA,02421-5222,US,948
SWAMPSCOTT,MA,01907-1929,US,949
FALL RIVER,MA,02721-3019,US,950
STOW,MA,01775-1035,US,951
MATTAPOISETT,MA,02739-1404,US,952
Plymouth,MA,02360,US,953
LOWELL,MA,01852-2228,US,954
REVERE,MA,02151-3100,US,955
REVERE,MA,02151-3211,US,956
WAKEFIELD,MA,01880-1209,US,957
NORTON,MA,02766-2711,US,958
ORLEANS,MA,02653-3200,US,959
DRACUT,MA,01826-4745,US,960
HULL,MA,02045-2535,US,961
NORTH DARTMOUTH,MA,02747-1280,US,962
NORTH ADAMS,MA,01247-4109,US,963
DUXBURY,MA,02332-5313,US,964
MILLBURY,MA,01527-2601,US,965
STONEHAM,MA,02180-3580,US,966
Granby,Massachusetts,01033,US,967
RAYNHAM,MA,02767-5416,US,968
MEDFORD,MA,02155-6931,US,969
MALDEN,MA,02148-5524,US,970
ATTLEBORO,MA,02703-8048,US,971
DOVER,MA,02030-2203,US,972
MILTON,MA,02186-3429,US,973
FRAMINGHAM,MA,01702-8200,US,974
LOWELL,MA,01854-2042,US,975
WILBRAHAM,MA,01095-1290,US,976
MELROSE,MA,02176-3201,US,977
CHELSEA,MA,02150-2807,US,978
DRACUT,MA,01826-2907,US,979
Chester,Massachusetts,01011,US,980
MONTGOMERY,MA,01085-9522,US,981
PEABODY,MA,01960-2400,US,982
Palmer,Massachusetts,01009,US,983
PALMER,MA,01069-1564,US,984
ARLINGTON,MA,02476-4814,US,985
AMESBURY,MA,01913-1831,US,986
CONCORD,MA,01742,US,987
BELCHERTOWN,MA,01007-9881,US,988
PEABODY,MA,01960-2927,US,989
BROOKLINE,MA,02445-1960,US,990
Bellingham,Massachusetts,02019,US,991
FRANKLIN,MA,02038-3902,US,992
RAYNHAM,MA,02767-1942,US,993
CHARLESTOWN,MA,02129-3225,US,994
MELROSE,MA,02176-2711,US,995
Douglas,Massachusetts,NA,US,996
WHITINSVILLE,MA,01588-2008,US,997
DORCHESTER,MA,02124-5699,US,998
ATHOL,MA,01331-2053,US,999
MANSFIELD,MA,02048-1225,US,1000
QUINCY,MA,02169-0960,US,1001
TOPSFIELD,MA,01983-2215,US,1002
HINGHAM,MA,02043-4035,US,1003
REVERE,MA,02151-3059,US,1004
MEDFORD,MA,02155-1643,US,1005
SWAMPSCOTT,MA,01907-2574,US,1006
HOLLISTON,MA,01746-3600,US,1007
MALDEN,MA,02148-6905,US,1008
SUDBURY,MA,01776-1747,US,1009
HOLYOKE,MA,01040-2955,US,1010
BOSTON,MA,02113-2106,US,1011
SHREWSBURY,MA,01545-2640,US,1012
WESTWOOD,MA,02090-1801,US,1013
SPRINGFIELD,MA,01104-3562,US,1014
DEDHAM,MA,02026-6146,US,1015
PEABODY,MA,01960-2906,US,1016
MEDFIELD,MA,02052-2018,US,1017
EVERETT,MA,02149-3471,US,1018
SOMERVILLE,MA,02144-2758,US,1019
EASTHAM,MA,02642-2703,US,1020
NORTHBOROUGH,MA,01532-1626,US,1021
AMHERST,MA,01002-1738,US,1022
AMHERST,MA,01002-2775,US,1023
LAWRENCE,MA,01841-4398,US,1024
SPRINGFIELD,MA,01104-4109,US,1025
FITCHBURG,MA,01420-4503,US,1026
NATICK,MA,01760-3644,US,1027
FRAMINGHAM,MA,01702-5316,US,1028
Plainville,Massachusetts,NA,US,1029
NATICK,MA,01760-6056,US,1030
PALMER,MA,01069-1138,US,1031
NORTH DARTMOUTH,MA,02747-3729,US,1032
AVON,MA,02322-1149,US,1033
NORFOLK,MA,02056-1642,US,1034
FAIRHAVEN,MA,02719-3050,US,1035
Bolton,Massachusetts,NA,US,1036
HARVARD,MA,01451-1131,US,1037
MALDEN,MA,02148-3900,US,1038
MIDDLEBORO,MA,02346-1858,US,1039
WAKEFIELD,MA,01880-4080,US,1040
ATHOL,MA,01331-1846,US,1041
ORLEANS,MA,02653-3206,US,1042
BRIGHTON,MA,02135-3601,US,1043
BROOKLINE,MA,02445-6777,US,1044
STOUGHTON,MA,02072-2481,US,1045
RANDOLPH,MA,02368-4820,US,1046
SWANSEA,MA,02777-4594,US,1047
WALPOLE,MA,02081-1700,US,1048
Huntington,Massachusetts,01050,US,1049
WESTHAMPTON,MA,01027-9637,US,1050
READING,MA,01867-3270,US,1051
GLOUCESTER,MA,01930-2237,US,1052
LUDLOW,MA,01056-2772,US,1053
East Brookfield,Massachusetts,01515,US,1054
ORLEANS,MA,02653-3511,US,1055
WOBURN,MA,01801-3339,US,1056
BRIGHTON,MA,02135-4040,US,1057
Acushnet,Massachusetts,NA,US,1058
LAKEVILLE,MA,02347-1618,US,1059
NORTH FALMOUTH,MA,02556-2019,US,1060
Wrentham,Massachusetts,NA,US,1061
FOXBORO,MA,02035-1375,US,1062
Abington,Massachusetts,02351,US,1063
ROCKLAND,MA,02370-2123,US,1064
CLINTON,MA,01510-1613,US,1065
AMESBURY,MA,01913-2125,US,1066
CLINTON,MA,01510-1037,US,1067
LYNN,MA,01901-1353,US,1068
SOMERVILLE,MA,02145-2528,US,1069
PEABODY,MA,01960-7931,US,1070
SWAMPSCOTT,MA,01907-2948,US,1071
LOWELL,MA,01852-6246,US,1072
AMESBURY,MA,01913-3828,US,1073
WELLESLEY HILLS,MA,02481-1706,US,1074
WINCHESTER,MA,01890-1913,US,1075
HUDSON,MA,01749-2765,US,1076
NORTH DARTMOUTH,MA,02747-1209,US,1077
MILTON,MA,02186-3800,US,1078
MARBLEHEAD,MA,01945-2146,US,1079
Needham,Massachusetts,02492,US,1080
WATERTOWN,MA,02472-4005,US,1081
MILTON,MA,02186-3513,US,1082
WESTFORD,MA,01886-6326,US,1083
ANDOVER,MA,01810-1550,US,1084
SAUGUS,MA,01906-3892,US,1085
MEDFORD,MA,02155-3825,US,1086
SHARON,MA,02067-1240,US,1087
FRAMINGHAM,MA,01702-6354,US,1088
WILMINGTON,MA,01887-1200,US,1089
NORWELL,MA,02061-1740,US,1090
LYNN,MA,01904-1260,US,1091
SALEM,MA,01970-5595,US,1092
METHUEN,MA,01844-4547,US,1093
E SANDWICH,MA,02537-1371,US,1094
PEABODY,MA,01960-7930,US,1095
NEWTON CENTER,MA,02459-2503,US,1096
WATERTOWN,MA,02472-2783,US,1097
BROOKLINE,MA,02446-5601,US,1098
CHELMSFORD,MA,01824-1731,US,1099
MARBLEHEAD,MA,01945-1611,US,1100
NORTH ADAMS,MA,01247-4144,US,1101
BROOKLINE,MA,02446-4812,US,1102
MALDEN,MA,02148-8143,US,1103
Hanson,Massachusetts,02341,US,1104
PEMBROKE,MA,02359-1912,US,1105
Southbridge,Massachusetts,01550,US,1106
CHARLTON,MA,01507-5235,US,1107
WILBRAHAM,MA,01095-1849,US,1108
FALMOUTH,MA,02540-1841,US,1109
WELLFLEET,MA,02667-8013,US,1110
HOLDEN,MA,01520-1960,US,1111
MEDFIELD,MA,02052-2900,US,1112
BROOKLINE,MA,02446-5074,US,1113
LYNN,MA,01904-3124,US,1114
BEVERLY,MA,01915-6141,US,1115
Upton,Massachusetts,01568,US,1116
SOUTHBORO,MA,01772-1614,US,1117
EAST FALMOUTH,MA,02536-5960,US,1118
EASTHAM,MA,02642-2568,US,1119
Buckland,Massachusetts,NA,US,1120
SHELBURNE FLS,MA,01370-9402,US,1121
HAVERHILL,MA,01835-8721,US,1122
MILLIS,MA,02054-1555,US,1123
EAST BOSTON,MA,02128-1203,US,1124
HINGHAM,MA,02043-4256,US,1125
PLAINVILLE,MA,02762-2258,US,1126
CHELMSFORD,MA,01824-2755,US,1127
WEST BRIDGEWATER,MA,02379-1542,US,1128
WESTON,MA,02493-1425,US,1129
TURNERS FALLS,MA,01376-1842,US,1130
MEDWAY,MA,02053-1584,US,1131
MILTON,MA,02186-3422,US,1132
SHERBORN,MA,01770-1302,US,1133
MARLBOROUGH,MA,01752-3999,US,1134
FALMOUTH,MA,02540-5103,US,1135
Easthampton,Massachusetts,01027,US,1136
SOUTH HADLEY,MA,01075-3000,US,1137
HOPEDALE,MA,01747-1700,US,1138
Swampscott,Massachusetts,01907,US,1139
MARBLEHEAD,MA,01945-3274,US,1140
EVERETT,MA,02149-3435,US,1141
BROOKLINE,MA,02446-6499,US,1142
STONEHAM,MA,02180-2429,US,1143
EVERETT,MA,02149-3614,US,1144
GRAFTON,MA,01536-1614,US,1145
LITTLETON,MA,01460-1709,US,1146
Mendon,Massachusetts,NA,US,1147
WOBURN,MA,01801-6351,US,1148
SAUGUS,MA,01906-2371,US,1149
STONEHAM,MA,02180-1251,US,1150
HINGHAM,MA,02043-3769,US,1151
CAMBRIDGE,MA,02138-5600,US,1152
SHARON,MA,02067-1936,US,1153
WELLESLEY HILLS,MA,02481-2130,US,1154
CHICOPEE,MA,01013-1611,US,1155
PLYMOUTH,MA,02360-4844,US,1156
MILLIS,MA,02054-1542,US,1157
TEWKSBURY,MA,01876-4766,US,1158
RANDOLPH,MA,02368-4821,US,1159
BELCHERTOWN,MA,01007-8914,US,1160
SOMERVILLE,MA,02145-2935,US,1161
NORTH DARTMOUTH,MA,02747-3322,US,1162
BELCHERTOWN,MA,01007-9590,US,1163
ROSLINDALE,MA,02131-2517,US,1164
DUXBURY,MA,02332-4507,US,1165
Boston,MA,02114,US,1166
WALTHAM,MA,02453-2717,US,1167
SHREWSBURY,MA,01545-3025,US,1168
FRAMINGHAM,MA,01701-2004,US,1169
DUDLEY,MA,01571-3817,US,1170
MEDFORD,MA,02155-5066,US,1171
HANSON,MA,02341-1160,US,1172
FRAMINGHAM,MA,01702-7202,US,1173
FALL RIVER,MA,02720-5421,US,1174
KINGSTON,MA,02364-2298,US,1175
WESTON,MA,02493-1568,US,1176
IPSWICH,MA,01938-1818,US,1177
DORCHESTER,MA,02124-5615,US,1178
NORWELL,MA,02061-1716,US,1179
NEWBURYPORT,MA,01950-3114,US,1180
LAKEVILLE,MA,02347-1388,US,1181
TEWKSBURY,MA,01876-4735,US,1182
ANDOVER,MA,01810-1501,US,1183
QUINCY,MA,02169-0979,US,1184
NORWOOD,MA,02062-3448,US,1185
Salisbury,Massachusetts,01952,US,1186
SALISBURY,MA,01952-2410,US,1187
MEDFORD,MA,02155-3800,US,1188
BROOKLINE,MA,02445-4270,US,1189
CAMBRIDGE,MA,02139-2914,US,1190
WELLFLEET,MA,02667-7027,US,1191
Hyannis,MA,02601,US,1192
FOXBOROUGH,MA,02035-4022,US,1193
DRACUT,MA,01826-3324,US,1194
RANDOLPH,MA,02368-4633,US,1195
FRAMINGHAM,MA,01701-4813,US,1196
YARMOUTH PORT,MA,02675-2000,US,1197
LUDLOW,MA,01056-3470,US,1198
BRADFORD,MA,01835-7438,US,1199
